ONEWEB-0207             
1 48242U 21031AJ  25085.37725652 -.00000115  00000+0 -34478-3 0  9991
2 48242  87.9087  18.7343 0001754  85.5569 274.5761 13.14501283189460
ONEWEB-0208             
1 48243U 21031AK  25085.51127419  .00000039  00000+0  69542-4 0  9999
2 48243  87.9086  18.7220 0001773  74.4716 285.6609 13.14503030189495
ONEWEB-0200             
1 48244U 21031AL  25085.55090814  .00000079  00000+0  17834-3 0  9992
2 48244  87.9083  18.7074 0001781  73.6310 286.5016 13.14501286189426
ONEWEB-0217             
1 48245U 21031AM  25085.56676642  .00000244  00000+0  62496-3 0  9991
2 48245  87.9084  18.6889 0001747  70.3994 289.7324 13.14501445189373
ONEWEB-0211             
1 48767U 21045A   25085.56073958  .00000147  00000+0  35441-3 0  9998
2 48767  87.9125 348.3481 0001970  69.2634 290.8708 13.16073290185565
ONEWEB-0223             
1 48768U 21045B   25085.44376221 -.00000075  00000+0 -23426-3 0  9997
2 48768  87.9132 348.3932 0002143  66.8663 293.2692 13.15546430185539
ONEWEB-0230             
1 48769U 21045C   25085.26313510  .00000193  00000+0  47826-3 0  9999
2 48769  87.9116 348.4866 0001967  82.1098 278.0256 13.15548468185771
ONEWEB-0237             
1 48770U 21045D   25085.48021985  .00000183  00000+0  45127-3 0  9998
2 48770  87.9135 348.4016 0002044  71.3237 288.8115 13.15547331185527
